NORAD_CAT_ID,OBJECT_NAME,OBJECT_TYPE,EPOCH,MEAN_MOTION,ECCENTRICITY,INCLINATION,RA_OF_ASC_NODE,ARG_OF_PERICENTER,MEAN_ANOMALY,BSTAR,MEAN_MOTION_DOT,MEAN_MOTION_DDOT,TLE_LINE0,TLE_LINE1,TLE_LINE2,SEMIMAJOR_AXIS,PERIOD,APOGEE,PERIGEE,DECAYED
53860.0,STARLINK-4799,PAYLOAD,2022-12-23 22:00:01,15.40431484,0.0001548,53.2168,145.9552,42.5693,253.2845,-0.030713,-0.01151722,0.0,0 STARLINK-4799,1 53860U 22114AU  22357.91668981 -.01151722  00000-0 -30713-1 0  9995,2 53860  53.2168 145.9552 0001548  42.5693 253.2845 15.40431484  1304,6822.972,93.48,445.893,443.781,0.0
53860.0,STARLINK-4799,PAYLOAD,2022-12-24 10:00:00,15.39202376,0.0001626999999999,53.2176,143.5994,49.6527,139.346,-0.031622,-0.01139579,0.0,0 STARLINK-4799,1 53860U 22114AU  22358.41667824 -.01139579  00000-0 -31622-1 0  9992,2 53860  53.2176 143.5994 0001627  49.6527 139.3460 15.39202376 15721,6826.604,93.555,449.579,447.358,0.0
53860.0,STARLINK-4799,PAYLOAD,2022-12-24 14:00:01,15.38809617,0.0001522,53.217,142.817,42.0687,350.8356,-0.032681,-0.01160556,0.0,0 STARLINK-4799,1 53860U 22114AU  22358.58334491 -.01160556  00000-0 -32681-1 0  9996,2 53860  53.2170 142.8170 0001522  42.0687 350.8356 15.38809617  1304,6827.765,93.579,450.669,448.591,0.0
53860.0,STARLINK-4799,PAYLOAD,2022-12-24 22:00:00,15.37990305,0.0001706,53.2165,141.2525,35.3206,44.6762,-0.033272,-0.01151097,0.0,0 STARLINK-4799,1 53860U 22114AU  22358.91667824 -.01151097  00000-0 -33272-1 0  9999,2 53860  53.2165 141.2525 0001706  35.3206  44.6762 15.37990305  1304,6830.19,93.629,453.22,450.89,0.0
53860.0,STARLINK-4799,PAYLOAD,2022-12-25 08:00:01,15.36964536,0.0001595999999999,53.2173,139.2955,48.9955,178.4964,-0.034061,-0.01140525,0.0,0 STARLINK-4799,1 53860U 22114AU  22359.33334491 -.01140525  00000-0 -34061-1 0  9998,2 53860  53.2173 139.2955 0001596  48.9955 178.4964 15.36964536 15867,6833.228,93.691,456.184,454.003,0.0
53860.0,STARLINK-4799,PAYLOAD,2022-12-25 14:00:01,15.36365532,0.0001654,53.217,138.126,50.9227,120.3226,-0.035223,-0.01155313,0.0,0 STARLINK-4799,1 53860U 22114AU  22359.58334491 -.01155313  00000-0 -35223-1 0  9997,2 53860  53.2170 138.1260 0001654  50.9227 120.3226 15.36365532  1303,6835.004,93.728,458.0,455.739,0.0
53860.0,STARLINK-4799,PAYLOAD,2022-12-26 00:00:00,15.35338806,0.000155,53.217,136.1765,41.7141,274.5805,-0.035991,-0.01143098,0.0,0 STARLINK-4799,1 53860U 22114AU  22360.00001157 -.01143098  00000-0 -35991-1 0  9995,2 53860  53.2170 136.1765 0001550  41.7141 274.5805 15.35338806  1307,6838.051,93.79,460.976,458.856,0.0
53860.0,STARLINK-4799,PAYLOAD,2022-12-26 06:00:00,15.34732392,0.0001646,53.2171,135.0075,41.8647,216.7211,-0.036836,-0.01147006,0.0,0 STARLINK-4799,1 53860U 22114AU  22360.25001157 -.01147006  00000-0 -36836-1 0  9994,2 53860  53.2171 135.0075 0001646  41.8647 216.7211 15.34732392 16007,6839.852,93.827,462.843,460.592,0.0
53860.0,STARLINK-4799,PAYLOAD,2022-12-26 14:00:01,15.33924304,0.0001478,53.217,133.4524,53.5049,247.2798,-0.038081,-0.01154719,0.0,0 STARLINK-4799,1 53860U 22114AU  22360.58334491 -.01154719  00000-0 -38081-1 0  9993,2 53860  53.2170 133.4524 0001478  53.5049 247.2798 15.33924304  1307,6842.254,93.877,465.131,463.108,0.0
53860.0,STARLINK-4799,PAYLOAD,2022-12-27 00:00:00,15.32893933,0.0001665,53.2171,131.5099,38.3913,43.7773,-0.038681,-0.01136827,0.0,0 STARLINK-4799,1 53860U 22114AU  22361.00001157 -.01136827  00000-0 -38681-1 0  9997,2 53860  53.2171 131.5099 0001665  38.3913  43.7773 15.32893933  1307,6845.32,93.94,468.325,466.046,0.0
53860.0,STARLINK-4799,PAYLOAD,2022-12-27 08:00:01,15.32080185,0.0001795,53.2174,129.9569,40.9086,81.3262,-0.039675,-0.01136483,0.0,0 STARLINK-4799,1 53860U 22114AU  22361.33335648 -.01136483  00000-0 -39675-1 0  9990,2 53860  53.2174 129.9569 0001795  40.9086  81.3262 15.32080185 16176,6847.744000000002,93.99,470.838,468.38,0.0
53860.0,STARLINK-4799,PAYLOAD,2022-12-27 14:00:01,15.31477313,0.0001565999999999,53.2171,128.796,40.8136,20.7128,-0.04085,-0.01147067,0.0,0 STARLINK-4799,1 53860U 22114AU  22361.58334491 -.01147067  00000-0 -40850-1 0  9999,2 53860  53.2171 128.7960 0001566  40.8136  20.7128 15.31477313  1305,6849.541,94.027,472.479,470.333,0.0
53860.0,STARLINK-4799,PAYLOAD,2022-12-27 22:00:00,15.30669829,0.0001871,53.2167,127.2484,31.0771,68.7364,-0.042205,-0.01154828,0.0,0 STARLINK-4799,1 53860U 22114AU  22361.91667824 -.01154828  00000-0 -42205-1 0  9994,2 53860  53.2167 127.2484 0001871  31.0771  68.7364 15.30669829  1309,6851.95,94.076,475.097,472.533,0.0
53860.0,STARLINK-4799,PAYLOAD,2022-12-28 08:00:01,15.29640312,0.0001865,53.2172,125.3137,35.0469,201.2613,-0.042856,-0.01137277,0.0,0 STARLINK-4799,1 53860U 22114AU  22362.33334491 -.01137277  00000-0 -42856-1 0  9993,2 53860  53.2172 125.3137 0001865  35.0469 201.2613 15.29640312 16323,6855.024,94.14,478.167,475.61,0.0
53860.0,STARLINK-4799,PAYLOAD,2022-12-28 14:00:01,15.29053466,0.0001742,53.2171,124.157,45.8217,127.634,-0.045013,-0.0116975,0.0,0 STARLINK-4799,1 53860U 22114AU  22362.58334491 -.01169750  00000-0 -45013-1 0  9999,2 53860  53.2171 124.1570 0001742  45.8217 127.6340 15.29053466  1302,6856.778,94.176,479.837,477.448,0.0
53860.0,STARLINK-4799,PAYLOAD,2022-12-28 22:00:00,15.28250303,0.0001781,53.2167,122.6149,35.2498,173.5575,-0.046763,-0.01200384,0.0,0 STARLINK-4799,1 53860U 22114AU  22362.91667824 -.01200384  00000-0 -46763-1 0  9997,2 53860  53.2167 122.6149 0001781  35.2498 173.5575 15.28250303  1307,6859.18,94.225,482.266,479.823,0.0
53860.0,STARLINK-4799,PAYLOAD,2022-12-29 08:00:01,15.27196937,0.0001776999999999,53.2175,120.6873,33.4481,308.1987,-0.046048,-0.01133628,0.0,0 STARLINK-4799,1 53860U 22114AU  22363.33334491 -.01133628  00000-0 -46048-1 0  9997,2 53860  53.2175 120.6873 0001777  33.4481 308.1987 15.27196937 16484,6862.333000000001,94.29,485.418,482.979,0.0
53860.0,STARLINK-4799,PAYLOAD,2022-12-29 14:00:01,15.26591585,0.0001529,53.2172,119.5352,48.2787,228.3243,-0.047254,-0.0114121,0.0,0 STARLINK-4799,1 53860U 22114AU  22363.58334491 -.01141210  00000-0 -47254-1 0  9990,2 53860  53.2172 119.5352 0001529  48.2787 228.3243 15.26591585  1308,6864.147,94.328,487.062,484.963,0.0
53860.0,STARLINK-4799,PAYLOAD,2022-12-30 08:00:01,15.24754325,0.0001851999999999,53.2173,116.0785,27.4261,50.7585,-0.049512,-0.01146965,0.0,0 STARLINK-4799,1 53860U 22114AU  22364.33334491 -.01146965  00000-0 -49512-1 0  9995,2 53860  53.2173 116.0785 0001852  27.4261  50.7585 15.24754325 16635,6869.66,94.441,492.798,490.253,0.0
53860.0,STARLINK-4799,PAYLOAD,2022-12-30 14:00:01,15.24183987,0.0001226,53.2172,114.9306,38.6256,332.2974,-0.0530159999999999,-0.01202343,0.0,0 STARLINK-4799,1 53860U 22114AU  22364.58334491 -.01202343  00000-0 -53016-1 0  9999,2 53860  53.2172 114.9306 0001226  38.6256 332.2974 15.24183987  1301,6871.374,94.477,494.081,492.396,0.0
53860.0,STARLINK-4799,PAYLOAD,2022-12-31 08:00:01,15.22315163,0.0001761999999999,53.2174,111.4868,44.4027,121.5168,-0.0533779999999999,-0.01149313,0.0,0 STARLINK-4799,1 53860U 22114AU  22365.33334491 -.01149313  00000-0 -53378-1 0  9991,2 53860  53.2174 111.4868 0001762  44.4027 121.5168 15.22315163 16787,6876.996,94.593,500.073,497.65,0.0
53860.0,STARLINK-4799,PAYLOAD,2022-12-31 14:00:01,15.2173562,0.0001659,53.2173,110.3431,52.7352,43.728,-0.056576,-0.01193598,0.0,0 STARLINK-4799,1 53860U 22114AU  22365.58334491 -.01193598  00000-0 -56576-1 0  9995,2 53860  53.2173 110.3431 0001659  52.7352  43.7280 15.21735620  1303,6878.7419999999975,94.629,501.74800000000016,499.466,0.0
53860.0,STARLINK-4799,PAYLOAD,2022-12-31 22:00:00,15.2090256,0.0001723,53.2169,108.8174,42.9327,80.0966,-0.056549,-0.01166337,0.0,0 STARLINK-4799,1 53860U 22114AU  22365.91667824 -.01166337  00000-0 -56549-1 0  9992,2 53860  53.2169 108.8174 0001723  42.9327  80.0966 15.20902560  1302,6881.254,94.681,504.305,501.9330000000001,0.0
53860.0,STARLINK-4799,PAYLOAD,2023-01-01 10:00:00,15.19670484,0.0001462,53.2175,106.5321,49.2845,291.7511,-0.057713,-0.01149414,0.0,0 STARLINK-4799,1 53860U 22114AU  23001.41667824 -.01149414  00000-0 -57713-1 0  9996,2 53860  53.2175 106.5321 0001462  49.2845 291.7511 15.19670484 16952,6884.973000000001,94.757,507.844,505.831,0.0
53860.0,STARLINK-4799,PAYLOAD,2023-01-01 14:00:01,15.19298522,0.0001758,53.2173,105.7728,52.8134,120.3827,-0.061033,-0.01198235,0.0,0 STARLINK-4799,1 53860U 22114AU  23001.58334491 -.01198235  00000-0 -61033-1 0  9990,2 53860  53.2173 105.7728 0001758  52.8134 120.3827 15.19298522  1300,6886.096,94.781,509.172,506.751,0.0
53860.0,STARLINK-4799,PAYLOAD,2023-01-02 00:00:00,15.18246929,0.0001531999999999,53.2174,103.8722,47.8356,244.7538,-0.060228,-0.01150695,0.0,0 STARLINK-4799,1 53860U 22114AU  23002.00001157 -.01150695  00000-0 -60228-1 0  9991,2 53860  53.2174 103.8722 0001532  47.8356 244.7538 15.18246929  1307,6889.276,94.846,512.196,510.085,0.0
53860.0,STARLINK-4799,PAYLOAD,2023-01-02 08:00:01,15.17432405,0.0001684,53.2174,102.3547,42.0614,272.9285,-0.061524,-0.01148302,0.0,0 STARLINK-4799,1 53860U 22114AU  23002.33334491 -.01148302  00000-0 -61524-1 0  9999,2 53860  53.2174 102.3547 0001684  42.0614 272.9285 15.17432405 17087,6891.741,94.897,514.766,512.445,0.0
53860.0,STARLINK-4799,PAYLOAD,2023-01-02 14:00:01,15.16840152,0.0001655,53.2174,101.2195,53.3824,187.7569,-0.064126,-0.01174377,0.0,0 STARLINK-4799,1 53860U 22114AU  23002.58334491 -.01174377  00000-0 -64126-1 0  9998,2 53860  53.2174 101.2195 0001655  53.3824 187.7569 15.16840152  1307,6893.535,94.934,516.5409999999998,514.259,0.0
53860.0,STARLINK-4799,PAYLOAD,2023-01-02 22:00:00,15.16010309,0.0001565999999999,53.2172,99.7048,48.1393,213.6976,-0.064338,-0.01152341,0.0,0 STARLINK-4799,1 53860U 22114AU  23002.91667824 -.01152341  00000-0 -64338-1 0  9996,2 53860  53.2172  99.7048 0001566  48.1393 213.6976 15.16010309  1301,6896.05,94.986,518.995,516.835,0.0
